[{"OBJECT_NAME":"QIANFAN-45","OBJECT_ID":"2024-232K","EPOCH":"2026-03-09T21:15:38.536416","MEAN_MOTION":13.51007368,"ECCENTRICITY":0.00128201,"INCLINATION":89.0071,"RA_OF_ASC_NODE":32.4286,"ARG_OF_PERICENTER":307.8822,"MEAN_ANOMALY":52.1169,"EPHEMERIS_TYPE":0,"CLASSIFICATION_TYPE":"U","NORAD_CAT_ID":62246,"ELEMENT_SET_NO":999,"REV_AT_EPOCH":11102,"BSTAR":0.00029429533,"MEAN_MOTION_DOT":2.02e-6,"MEAN_MOTION_DDOT":0},{"OBJECT_NAME":"DELTA 1 DEB","OBJECT_ID":"1978-026CE","EPOCH":"2026-03-09T17:10:30.741312","MEAN_MOTION":13.97948759,"ECCENTRICITY":0.0241914,"INCLINATION":98.8091,"RA_OF_ASC_NODE":159.9351,"ARG_OF_PERICENTER":279.4794,"MEAN_ANOMALY":77.9105,"EPHEMERIS_TYPE":0,"CLASSIFICATION_TYPE":"U","NORAD_CAT_ID":12237,"ELEMENT_SET_NO":999,"REV_AT_EPOCH":23162,"BSTAR":0.0019798382,"MEAN_MOTION_DOT":3.56e-5,"MEAN_MOTION_DDOT":0}]
